ORBCOMM FM20 [+]        
1 25416U 98046D   24059.25892028  .00001114  00000+0  43732-3 0  9999
2 25416  44.9937 266.2962 0000492  51.0208 309.0683 14.34927069335993
ORBCOMM FM16 [-]        
1 25417U 98046E   24059.61198557  .00001542  00000+0  57643-3 0  9997
2 25417  44.9936 260.9101 0004059  75.5610 284.5687 14.35800755335972
ORBCOMM FM15 [-]        
1 25418U 98046F   24059.27684196  .00001442  00000+0  54488-3 0  9992
2 25418  44.9968 266.3875 0003651  74.9558 285.1693 14.35541806335936
ORBCOMM FM14 [-]        
1 25419U 98046G   24059.59322938  .00001523  00000+0  57109-3 0  9994
2 25419  44.9956 264.0980 0002455  66.4755 322.7198 14.35684696335935
ORBCOMM FM13 [+]        
1 25420U 98046H   24059.32050254  .00001298  00000+0  50057-3 0  9990
2 25420  44.9971 269.8716 0004712  55.2002 304.9288 14.35030937334960
ORBCOMM FM21 [-]        
1 25475U 98053A   24059.54733233  .00001264  00000+0  48881-3 0  9992
2 25475  45.0108 353.0293 0001906 338.7805  21.2962 14.35004635329016
ORBCOMM FM22 [-]        
1 25476U 98053B   24059.48022014  .00001608  00000+0  60280-3 0  9993
2 25476  45.0103 350.9093 0003531 348.9119  11.1650 14.35471610328992
ORBCOMM FM23 [-]        
1 25477U 98053C   24059.50768731  .00001487  00000+0  56621-3 0  9999
2 25477  45.0109 355.6617 0002904 342.7111  17.3636 14.35028851329156
